{
  "norad_id": 62267,
  "name": "STARLINK-11496 [DTC]",
  "history": [
    {
      "epoch": "2026-03-28T20:39:57.127104Z",
      "apogee_km": 357.8521292843561,
      "perigee_km": 354.00320728255247,
      "latitude_deg": -4.0504015560155375e-05,
      "longitude_deg": 165.12877422650968,
      "height_km": 356.7432915312002,
      "semi_major_axis_km": 6734.064668283454,
      "eccentricity": 0.00028578,
      "inclination_deg": 42.9974,
      "raan_deg": 301.3923,
      "arg_perigee_deg": 237.1866,
      "mean_anomaly_deg": 122.8726,
      "mean_motion_rev_day": 15.71038536
    }
  ]
}